[{"OBJECT_NAME":"CYGFM03","OBJECT_ID":"2016-078H","EPOCH":"2026-03-09T23:11:20.561280","MEAN_MOTION":15.54861223,"ECCENTRICITY":0.00057526,"INCLINATION":34.9405,"RA_OF_ASC_NODE":169.5167,"ARG_OF_PERICENTER":310.9342,"MEAN_ANOMALY":49.0883,"EPHEMERIS_TYPE":0,"CLASSIFICATION_TYPE":"U","NORAD_CAT_ID":41891,"ELEMENT_SET_NO":999,"REV_AT_EPOCH":51349,"BSTAR":0.00042675413,"MEAN_MOTION_DOT":0.0002949,"MEAN_MOTION_DDOT":0},{"OBJECT_NAME":"OBJECT B","OBJECT_ID":"2024-016B","EPOCH":"2026-03-09T23:07:32.206944","MEAN_MOTION":15.56634272,"ECCENTRICITY":0.00048188,"INCLINATION":97.4479,"RA_OF_ASC_NODE":160.469,"ARG_OF_PERICENTER":75.9496,"MEAN_ANOMALY":284.2294,"EPHEMERIS_TYPE":0,"CLASSIFICATION_TYPE":"U","NORAD_CAT_ID":58821,"ELEMENT_SET_NO":999,"REV_AT_EPOCH":11866,"BSTAR":0.0010784899,"MEAN_MOTION_DOT":0.0007733,"MEAN_MOTION_DDOT":0}]
